*******************************************************************************
 Revised: Nov 05, 2015            Hydra / (Pluto)                           903

 Fit to all available observations including New Horizons encounter tracking.
*******************************************************************************
 

 

*******************************************************************************
Ephemeris / WWW_USER Thu Dec 26 16:00:43 2019 Pasadena, USA      / Horizons    
*******************************************************************************
Target body name: Hydra (903)                     {source: plu055l_merged}
Center body name: Sun (10)                        {source: plu055l_merged}
Center-site name: BODY CENTER
*******************************************************************************
Start time      : A.D. 2019-Dec-26 00:00:00.0000 TDB
Stop  time      : A.D. 2020-Jan-25 00:00:00.0000 TDB
Step-size       : 1440 minutes
*******************************************************************************
Center geodetic : 0.00000000,0.00000000,0.0000000 {E-lon(deg),Lat(deg),Alt(km)}
Center cylindric: 0.00000000,0.00000000,0.0000000 {E-lon(deg),Dxy(km),Dz(km)}
Center radii    : 696000.0 x 696000.0 x 696000.0 k{Equator, meridian, pole}    
Keplerian GM    : 1.3271244004194296E+11 km^3/s^2
Output units    : KM-S, deg                                                    
Output type     : GEOMETRIC osculating elements
Output format   : 10
Reference frame : ICRF/J2000.0                                                 
Coordinate systm: Ecliptic and Mean Equinox of Reference Epoch                 
*******************************************************************************
            JDTDB,            Calendar Date (TDB),                     EC,                     QR,                     IN,                     OM,                      W,                     Tp,                      N,                     MA,                     TA,                      A,                     AD,                     PR,
**************************************************************************************************************************************************************************************************************************************************************************************************************************************************
$$SOE
2458843.500000000, A.D. 2019-Dec-26 00:00:00.0000,  2.458850517821317E-01,  4.306347227611149E+09,  1.748996551214043E+01,  1.103459346399000E+02,  1.054795926620580E+02, -1.047459331790980E+09,  4.836945640873426E-08,  5.066503848898573E+01,  7.671936570712089E+01,  5.710465278254927E+09,  7.114583328898705E+09,  7.442713371800337E+09,
2458844.500000000, A.D. 2019-Dec-27 00:00:00.0000,  2.433196148571297E-01,  4.302770719500846E+09,  1.730652210812561E+01,  1.103222284036662E+02,  1.049073133594435E+02, -1.056204047969384E+09,  4.867711796436176E-08,  5.141296903744212E+01,  7.731938466571806E+01,  5.686378032236732E+09,  7.069985344972617E+09,  7.395672033491563E+09,
2458845.500000000, A.D. 2019-Dec-28 00:00:00.0000,  2.408637484539524E-01,  4.303021098243956E+09,  1.711295783000895E+01,  1.102966214109165E+02,  1.045710349350309E+02, -1.062393667365685E+09,  4.891001915125020E-08,  5.196169461702257E+01,  7.768523525727382E+01,  5.668311965711656E+09,  7.033602833179356E+09,  7.360455101984927E+09,
2458846.500000000, A.D. 2019-Dec-29 00:00:00.0000,  2.386976942102664E-01,  4.307419648554473E+09,  1.692451604860225E+01,  1.102710883888051E+02,  1.045216198641557E+02, -1.065275891185176E+09,  4.904428303203146E-08,  5.224569231448533E+01,  7.776417322418222E+01,  5.657962173234442E+09,  7.008504697914411E+09,  7.340305082345262E+09,
2458847.500000000, A.D. 2019-Dec-30 00:00:00.0000,  2.368477152260993E-01,  4.316592472299448E+09,  1.674208552589938E+01,  1.102457814559436E+02,  1.048075821193235E+02, -1.064263220033735E+09,  4.906634284696855E-08,  5.221950403359396E+01,  7.750754120471534E+01,  5.656266198008340E+09,  6.995939923717232E+09,  7.337004942935987E+09,
2458848.500000000, A.D. 2019-Dec-31 00:00:00.0000,  2.353082498974828E-01,  4.330140151999683E+09,  1.656595574107132E+01,  1.102207795346591E+02,  1.054107091431936E+02, -1.059500532232972E+09,  4.898409930549016E-08,  5.189867928511955E+01,  7.693347806034495E+01,  5.662595616363287E+09,  6.995051080726891E+09,  7.349323660211734E+09,
2458849.500000000, A.D. 2020-Jan-01 00:00:00.0000,  2.341497679429211E-01,  4.347186056050661E+09,  1.640254635934033E+01,  1.101970648332114E+02,  1.062931316887618E+02, -1.051264363864876E+09,  4.880697370038058E-08,  5.130903215930030E+01,  7.607891227285447E+01,  5.676287443791836E+09,  7.005388831533010E+09,  7.375995123360677E+09,
2458850.500000000, A.D. 2020-Jan-02 00:00:00.0000,  2.334836288573515E-01,  4.366884179905354E+09,  1.626028251030741E+01,  1.101759959590739E+02,  1.074218899579004E+02, -1.039748183624185E+09,  4.854037101183650E-08,  5.046976259200101E+01,  7.497549829316254E+01,  5.697052723604097E+09,  7.027221267302840E+09,  7.416506971325261E+09,
2458851.500000000, A.D. 2020-Jan-03 00:00:00.0000,  2.334225730749297E-01,  4.388919318236588E+09,  1.614423803286060E+01,  1.101585051156173E+02,  1.087937356009034E+02, -1.024838081447471E+09,  4.818103150384451E-08,  4.937775588856019E+01,  7.362558560114262E+01,  5.725343799701510E+09,  7.061768281166432E+09,  7.471820107696833E+09,
2458852.500000000, A.D. 2020-Jan-04 00:00:00.0000,  2.340306295136223E-01,  4.413236783897767E+09,  1.605287159130284E+01,  1.101445308759287E+02,  1.104118697040543E+02, -1.006412683360749E+09,  4.772651361835471E-08,  4.803256863810170E+01,  7.202602852847946E+01,  5.761636109672944E+09,  7.110035435448121E+09,  7.542977114958400E+09,
2458853.500000000, A.D. 2020-Jan-05 00:00:00.0000,  2.352533357270656E-01,  4.438042625665212E+09,  1.598598039852361E+01,  1.101341798126807E+02,  1.121505578818867E+02, -9.859195903057181E+08,  4.721365614481067E-08,  4.654886852312680E+01,  7.030245644960911E+01,  5.803284712440794E+09,  7.168526799216376E+09,  7.624912565462656E+09,
2458854.500000000, A.D. 2020-Jan-06 00:00:00.0000,  2.371312929639768E-01,  4.461849890086394E+09,  1.595242935354997E+01,  1.101289456206037E+02,  1.139122569512320E+02, -9.644487629416186E+08,  4.666386610824071E-08,  4.500490794216608E+01,  6.855097378531642E+01,  5.848778235277258E+09,  7.235706580468122E+09,  7.714748691523975E+09,
2458855.500000000, A.D. 2020-Jan-07 00:00:00.0000,  2.397225296623773E-01,  4.484798580239048E+09,  1.595288747673151E+01,  1.101290182944688E+02,  1.157029352162149E+02, -9.419395516259930E+08,  4.607042478624086E-08,  4.339555526637075E+01,  6.676542795082996E+01,  5.898897120083603E+09,  7.312995659928158E+09,  7.814123739260933E+09,
2458856.500000000, A.D. 2020-Jan-08 00:00:00.0000,  2.429614287224247E-01,  4.506470984714843E+09,  1.598408054646535E+01,  1.101339073654105E+02,  1.174773440610141E+02, -9.190275174189320E+08,  4.544651566229539E-08,  4.176659846445995E+01,  6.499153995604067E+01,  5.952762720015363E+09,  7.399054455315883E+09,  7.921399358205876E+09,
2458857.500000000, A.D. 2020-Jan-09 00:00:00.0000,  2.466765699303722E-01,  4.525918891361670E+09,  1.604318335065874E+01,  1.101431388501994E+02,  1.191456860122633E+02, -8.969478009302418E+08,  4.482192578531908E-08,  4.020292776660043E+01,  6.331956514644502E+01,  6.007935915312430E+09,  7.489952939263190E+09,  8.031783411633642E+09,
2458858.500000000, A.D. 2020-Jan-10 00:00:00.0000,  2.506839470811076E-01,  4.542354636385750E+09,  1.612924509675511E+01,  1.101564913418920E+02,  1.206310092485399E+02, -8.767901949610909E+08,  4.422363609411080E-08,  3.877485051284376E+01,  6.182667102644111E+01,  6.062000965669188E+09,  7.581647294952627E+09,  8.140443251520439E+09,
2458859.500000000, A.D. 2020-Jan-11 00:00:00.0000,  2.549104278664888E-01,  4.555651449711814E+09,  1.624394842725237E+01,  1.101741108276809E+02,  1.219144866552903E+02, -8.588725818364733E+08,  4.365816157732976E-08,  3.749679795215511E+01,  6.053154847180156E+01,  6.114233268178788E+09,  7.672815086645762E+09,  8.245880884433211E+09,
2458860.500000000, A.D. 2020-Jan-12 00:00:00.0000,  2.593276278122181E-01,  4.566301831706228E+09,  1.638484731594759E+01,  1.101954709875776E+02,  1.230242067686900E+02, -8.429199171172278E+08,  4.311920501120367E-08,  3.634603671420452E+01,  5.940662000381075E+01,  6.165076494237778E+09,  7.763851156769327E+09,  8.348947989798539E+09,
2458861.500000000, A.D. 2020-Jan-13 00:00:00.0000,  2.635646763063200E-01,  4.573938558388425E+09,  1.653910337824793E+01,  1.102184996308944E+02,  1.239033035523589E+02, -8.298640941606499E+08,  4.264271788970881E-08,  3.538766045409135E+01,  5.851074464464929E+01,  6.210916846638054E+09,  7.847895134887683E+09,  8.442238623980408E+09,
2458862.500000000, A.D. 2020-Jan-14 00:00:00.0000,  2.673841611668505E-01,  4.577966749794634E+09,  1.670548752063776E+01,  1.102429287269400E+02,  1.244973151730481E+02, -8.204869192603780E+08,  4.225556898274147E-08,  3.467014161624392E+01,  5.789864252268180E+01,  6.248795763255739E+09,  7.919624776716845E+09,  8.519587090332058E+09,
2458863.500000000, A.D. 2020-Jan-15 00:00:00.0000,  2.707912248368226E-01,  4.578706545676965E+09,  1.688491126553643E+01,  1.102688049754374E+02,  1.248341337324427E+02, -8.144344941191205E+08,  4.195097547546940E-08,  3.416632148916752E+01,  5.754237798886309E+01,  6.279006371875287E+09,  7.979306198073609E+09,  8.581445268430243E+09,
2458864.500000000, A.D. 2020-Jan-16 00:00:00.0000,  2.737095241033586E-01,  4.576520579028375E+09,  1.707154116571897E+01,  1.102952185115675E+02,  1.249369795958829E+02, -8.114568671823876E+08,  4.172927542732302E-08,  3.386150710804650E+01,  5.741960231112628E+01,  6.301226204816241E+09,  8.025931830604108E+09,  8.627036925838480E+09,
